OBJECT_NAME,OBJECT_ID,EPOCH,MEAN_MOTION,ECCENTRICITY,INCLINATION,RA_OF_ASC_NODE,ARG_OF_PERICENTER,MEAN_ANOMALY,EPHEMERIS_TYPE,CLASSIFICATION_TYPE,NORAD_CAT_ID,ELEMENT_SET_NO,REV_AT_EPOCH,BSTAR,MEAN_MOTION_DOT,MEAN_MOTION_DDOT
TURKSAT 6A,2024-127A,2026-07-01T21:04:20.061408,1.00269513,.0002759,0.0150,215.4043,293.2996,129.3062,0,U,60233,999,716,0,0,0
GRBBETA,2024-128C,2026-07-02T06:50:42.823968,15.06732068,.00386902,61.9886,163.2905,137.9215,222.4861,0,U,60237,999,10854,.29929411E-3,.4329E-4,0
ISTSAT-1,2024-128D,2026-07-02T11:09:46.721376,15.11791050,.00363235,61.9873,152.1047,134.0163,226.3936,0,U,60238,999,10877,.42966018E-3,.7269E-4,0
OOV-CUBE (TUBSAT-30),2024-128F,2026-07-02T13:24:39.811104,15.02830240,.00426943,61.9934,171.9698,137.1235,223.3199,0,U,60240,999,10842,.18357434E-3,.2304E-4,0
CURIUM ONE,2024-128H,2026-07-02T10:34:41.098944,15.12705644,.00378818,61.9775,151.7410,134.0569,226.3657,0,U,60242,999,10876,.50121634E-3,.8758E-4,0
ROBUSTA-3A (MEDITERRANEE),2024-128J,2026-07-02T09:56:22.424352,15.11831241,.00396593,61.9853,154.3896,131.0687,229.3846,0,U,60243,999,10872,.45226834E-3,.7696E-4,0
CATSAT,2024-125J,2026-07-02T12:56:06.520704,15.60613353,.00218805,97.2067,36.2577,126.8317,233.4952,0,U,60246,999,10978,.78107741E-3,.65621E-3,0
GAOFEN-11 05,2024-130A,2026-07-02T14:47:57.031584,15.23428190,.00033002,97.3996,261.7164,22.0744,338.0635,0,U,60249,999,8781,.2550857E-3,.6005E-4,0
STARLINK-32138,2024-131A,2026-07-02T13:28:32.075040,15.31704732,.00009875,53.1599,238.3253,84.1020,276.0094,0,U,60255,999,10961,.31419626E-4,.61E-5,0
STARLINK-32212,2024-131B,2026-07-02T08:59:20.049504,15.30195681,.00012213,53.1607,240.0074,78.2696,281.8442,0,U,60256,999,10927,.9109926E-5,-.89E-6,0
STARLINK-32166,2024-131C,2026-07-02T10:42:29.630592,15.30203694,.00010827,53.1599,239.7352,88.2452,271.8673,0,U,60257,999,10928,.11486761E-4,-.19E-6,0
STARLINK-32200,2024-131D,2026-07-02T10:30:20.385216,15.30200156,.00011823,53.1610,239.6806,82.5228,277.5908,0,U,60258,999,10928,.7068391E-5,-.15E-5,0
STARLINK-32207,2024-131E,2026-07-02T13:35:25.207872,15.30192907,.00011262,53.1604,239.0714,87.7556,272.3574,0,U,60259,999,10930,-.11661206E-4,-.704E-5,0
STARLINK-32125,2024-131F,2026-07-02T13:56:31.113024,15.30200820,.00010791,53.1607,238.4490,92.8668,267.2457,0,U,60260,999,10931,.23802294E-4,.346E-5,0
STARLINK-32160,2024-131G,2026-07-02T10:34:54.301728,15.30198917,.0001206,53.1598,239.6966,74.9246,285.1888,0,U,60261,999,10933,.2711356E-5,-.279E-5,0
STARLINK-32163,2024-131H,2026-07-02T14:28:52.781088,15.31710956,.00011619,53.1594,237.8727,92.6909,267.4226,0,U,60262,999,10932,.46233106E-4,.107E-4,0
STARLINK-32148,2024-131J,2026-07-02T10:34:03.295488,15.31705337,.00011123,53.1592,238.9855,80.7583,279.3545,0,U,60263,999,10934,.23579839E-4,.367E-5,0
STARLINK-32121,2024-131K,2026-07-02T12:41:08.192256,15.31707394,.00011399,53.1600,238.8276,91.6459,268.4673,0,U,60264,999,10935,.23622459E-4,.368E-5,0
STARLINK-32120,2024-131L,2026-07-02T14:14:50.598816,15.29357002,.00011038,53.1593,239.2304,89.4280,270.6847,0,U,60265,999,10935,.52379389E-4,.1156E-4,0
STARLINK-32205,2024-131M,2026-07-02T14:08:51.694944,15.31705298,.00008454,53.1589,238.5079,99.2700,260.8397,0,U,60266,999,10931,.20986053E-4,.286E-5,0
STARLINK-32158,2024-131N,2026-07-02T12:45:15.970176,15.30195316,.00012735,53.1590,238.8389,66.9864,293.1271,0,U,60267,999,10920,-.1040323E-4,-.667E-5,0
STARLINK-32167,2024-131P,2026-07-02T13:58:02.412768,15.30196935,.00008995,53.1599,238.4618,76.4320,283.6781,0,U,60268,999,10930,.47684068E-4,.1053E-4,0
STARLINK-32144,2024-131Q,2026-07-02T13:08:22.207200,15.31695725,.0000682,53.1608,238.2327,79.8552,280.2527,0,U,60269,999,10936,.202778E-4,.264E-5,0
STARLINK-32211,2024-131R,2026-07-02T14:00:01.999872,15.33514141,.0001101,53.1588,238.9961,80.3480,13.9453,0,U,60270,999,571,.17488767E-2,.57523E-3,0
STARLINK-32164,2024-131S,2026-07-02T13:52:07.320864,15.30199382,.0001016,53.1598,239.1318,84.7623,275.3494,0,U,60271,999,10920,.2709043E-4,.443E-5,0
STARLINK-32128,2024-131T,2026-07-02T12:40:42.703392,15.30188674,.00011435,53.1595,238.8236,90.6515,269.4617,0,U,60272,999,10930,.10636703E-4,-.44E-6,0
STARLINK-32206,2024-131U,2026-07-02T10:28:49.340352,15.30200803,.00012569,53.1609,239.6823,77.5240,282.5901,0,U,60273,999,10928,.4792701E-5,-.217E-5,0
STARLINK-32155,2024-131V,2026-07-02T14:02:08.228544,15.31708321,.00010729,53.1596,238.4672,98.4499,261.6624,0,U,60274,999,10921,.31611032E-4,.616E-5,0
STARLINK-32152,2024-131W,2026-07-02T12:36:12.026880,15.30162558,.00014359,53.1613,238.8001,81.5039,278.6124,0,U,60275,999,10920,-.14485303E-3,-.4642E-4,0
STARLINK-32154,2024-131X,2026-07-02T10:52:58.393632,15.30199241,.00010424,53.1598,239.0636,95.0658,265.0462,0,U,60276,999,10929,-.15636836E-4,-.822E-5,0
STARLINK-32135,2024-131Y,2026-07-02T12:51:20.670624,15.30190606,.0001203,53.1598,238.8620,81.9164,278.1974,0,U,60277,999,10930,.14201897E-4,.61E-6,0
STARLINK-32156,2024-132A,2026-07-02T12:37:41.813760,15.30196009,.00012097,53.1603,238.9379,87.7060,272.4079,0,U,60278,999,11036,-.8405031E-5,-.608E-5,0
STARLINK-32010,2024-132B,2026-07-02T10:33:35.034912,15.31710679,.00007843,53.1601,239.1159,53.2757,306.8316,0,U,60279,999,10913,.34145582E-4,.695E-5,0
STARLINK-32118,2024-132C,2026-07-02T14:02:38.187744,15.30194560,.00011119,53.1599,238.5942,94.7331,265.3796,0,U,60280,999,10915,.17441434E-4,.157E-5,0
STARLINK-32038,2024-132D,2026-07-02T12:31:36.594048,15.30194190,.00010588,53.1603,238.9113,80.6683,279.4437,0,U,60281,999,10914,.10373863E-3,.2714E-4,0
STARLINK-32113,2024-132E,2026-07-02T14:07:11.123616,15.30191854,.00012489,53.1602,238.6147,83.9483,276.1660,0,U,60282,999,10915,-.6667325E-5,-.557E-5,0
STARLINK-32037,2024-132F,2026-07-02T10:47:01.663584,15.31712031,.00009714,53.1600,239.1684,83.7710,276.3402,0,U,60283,999,10913,.53012849E-4,.1281E-4,0
STARLINK-32123,2024-132G,2026-07-02T09:59:11.019264,15.30197632,.00011057,53.1600,226.9040,82.0955,278.0171,0,U,60284,999,10930,.15060913E-4,.87E-6,0
STARLINK-32122,2024-132H,2026-07-02T14:00:01.999872,15.31673840,.00011428,53.1577,238.7517,79.9759,196.5773,0,U,60285,999,581,.1628507E-2,.5047E-3,0
STARLINK-31656,2024-132J,2026-07-02T10:45:24.196608,15.30199378,.00010636,53.1598,239.1686,87.3594,272.7528,0,U,60286,999,10913,.28741119E-4,.492E-5,0
STARLINK-32114,2024-132K,2026-07-02T14:01:40.597824,15.31709165,.00011282,53.1594,238.5903,94.8725,265.2405,0,U,60287,999,10915,-.91143073E-4,-.3193E-4,0
STARLINK-31997,2024-132L,2026-07-02T10:31:43.612608,15.30195621,.00011442,53.1604,239.0970,86.5106,273.6025,0,U,60288,999,10913,.31056238E-4,.561E-5,0
STARLINK-32000,2024-132M,2026-07-02T10:06:43.000992,15.31693175,.0001137,53.1605,238.9980,83.4138,276.6993,0,U,60289,999,10913,-.29887344E-4,-.1292E-4,0
STARLINK-32141,2024-132N,2026-07-02T12:43:46.585920,15.30192513,.00011601,53.1598,238.9627,98.2840,261.8292,0,U,60290,999,10914,.11030154E-4,-.32E-6,0
STARLINK-32142,2024-132P,2026-07-02T10:39:21.742560,15.30177372,.00010709,53.1594,239.1348,74.9805,285.1314,0,U,60291,999,10913,-.5710419E-4,-.2049E-4,0
STARLINK-32149,2024-132Q,2026-07-02T13:48:42.837984,15.31711091,.00010728,53.1598,238.5377,83.9032,276.2092,0,U,60292,999,10915,.8308747E-5,-.107E-5,0
STARLINK-32159,2024-132R,2026-07-02T10:36:17.465184,15.30194565,.00011174,53.1596,239.1196,75.7551,284.3574,0,U,60293,999,10913,.1187625E-4,-.7E-7,0
STARLINK-32150,2024-132S,2026-07-02T10:47:31.081056,15.31710923,.00010452,53.1592,239.1732,85.6949,274.4172,0,U,60294,999,10913,-.1831495E-5,-.422E-5,0
STARLINK-32126,2024-132T,2026-07-02T13:35:16.090080,15.31709944,.000095,53.1600,238.4766,87.1294,272.9816,0,U,60295,999,10915,.29763105E-4,.559E-5,0
STARLINK-32143,2024-132U,2026-07-02T10:13:55.296480,15.31699109,.0001233,53.1605,239.0288,76.3264,283.7875,0,U,60296,999,10913,-.33472495E-4,-.1404E-4,0
STARLINK-32034,2024-132V,2026-07-02T13:01:11.551584,15.31694140,.00013002,53.1609,238.3295,93.4122,266.7028,0,U,60297,999,10915,-.1579587E-4,-.855E-5,0
STARLINK-32124,2024-132W,2026-07-02T13:15:07.012800,15.31700647,.00012933,53.1606,238.3913,89.2705,270.8444,0,U,60298,999,10915,-.18350771E-4,-.935E-5,0
STARLINK-32151,2024-132X,2026-07-02T11:48:09.982080,15.30206073,.00008291,53.1594,210.7394,114.4479,245.6608,0,U,60299,999,10953,.87467457E-4,.2233E-4,0
STARLINK-32134,2024-132Y,2026-07-02T12:46:48.946944,15.30189300,.00012426,53.1590,238.9745,90.8262,269.2881,0,U,60300,999,10914,-.7685741E-5,-.587E-5,0
STARLINK-11147 [DTC],2024-133A,2026-07-02T01:20:11.968512,15.69708614,.00008736,53.1605,302.6588,79.9719,280.1397,0,U,60301,999,11169,.7178447E-5,.281E-5,0
STARLINK-11128 [DTC],2024-133B,2026-07-02T01:13:09.525216,15.69665023,.00025819,53.1581,302.6247,117.8574,242.2705,0,U,60302,999,11169,.8243038E-4,.939E-4,0
STARLINK-11227 [DTC],2024-133C,2026-07-02T14:51:14.956704,15.69693101,.00011137,53.1596,299.7682,88.1683,271.9463,0,U,60303,999,11186,-.16744794E-4,-.2615E-4,0
STARLINK-11224 [DTC],2024-133D,2026-07-02T14:44:11.159520,15.69693574,.00011988,53.1592,299.7332,86.3071,273.8084,0,U,60304,999,11186,-.13882458E-4,-.2269E-4,0
STARLINK-11115 [DTC],2024-133E,2026-07-02T14:37:06.632256,15.69703199,.00013463,53.1570,299.6997,97.9440,262.1731,0,U,60305,999,11178,.490258E-6,-.53E-5,0
STARLINK-11109 [DTC],2024-133F,2026-07-02T14:30:02.613888,15.69705761,.00007754,53.1584,299.6682,89.8983,270.2124,0,U,60306,999,11178,-.867029E-5,-.1638E-4,0
STARLINK-11223 [DTC],2024-133G,2026-07-02T14:15:55.126656,15.69700206,.00007117,53.1588,299.6009,94.7960,265.3139,0,U,60307,999,11178,-.7057062E-5,-.1442E-4,0
STARLINK-11192 [DTC],2024-133H,2026-07-02T11:19:37.577280,15.69692423,.00009605,53.1591,300.2624,91.4777,268.6351,0,U,60308,999,11176,-.18626624E-4,-.2842E-4,0
STARLINK-11213 [DTC],2024-133J,2026-07-02T14:08:51.828864,15.69691726,.0001115,53.1585,299.5686,80.5704,279.5440,0,U,60309,999,11178,-.21089528E-4,-.314E-4,0
